[Satellite]
VERSION=1.1
NAME=COSMOS 2228
NICKNAME=COSMOS 2228
TLE1=1 22286U 92094A   18020.88954857  .00000186  00000-0  17456-4 0  9991
TLE2=2 22286  82.5208 168.7981 0022609 117.3702 242.9820 14.87897291333795
